METEOSAT-5 (MOP-2)      
1 21140U 91015B   09128.01637705 -.00000197  00000-0  10000-3 0  7588
2 21140  10.8325  49.5604 0003716 145.4172 214.4898  0.98453462 68683
METEOSAT-6 (MOP-3)      
1 22912U 93073B   09128.69545934 -.00000021  00000-0  10000-3 0   554
2 22912   8.2813  60.3541 0002091 332.4753 151.5634  1.00273073 55073
HIMAWARI-5 (GMS-5)      
1 23522U 95011B   09128.25951593 -.00000165  00000-0  10000-3 0  2214
2 23522   7.4303  63.3399 0007945 321.9090  37.8878  0.99403350 51544
GOES 10                 
1 24786U 97019A   09128.43442661 -.00000285  00000-0  10000-3 0  9027
2 24786   3.5343  75.0648 0003151 347.3776 260.5618  1.00275567 44104
ORBVIEW 2 (SEASTAR)     
1 24883U 97037A   09129.21513872 -.00000006  00000-0  87013-5 0  7877
2 24883  98.3375 252.8765 0001282  11.9055 348.2156 14.59986966626759
METEOSAT-7              
1 24932U 97049B   09129.74868390  .00000066  00000-0  10000-3 0  5683
2 24932   5.1066  70.0691 0000646 326.5111 158.2575  1.00264801 42807
NOAA 15                 
1 25338U 98030A   09129.14717841  .00000215  00000-0  11083-3 0  9180
2 25338  98.5821 119.2151 0010965 166.0444 194.1077 14.24758488571218
GOES 11                 
1 26352U 00022A   09129.47724656  .00000088  00000-0  10000-3 0  3077
2 26352   0.3465  84.9411 0001884 235.4410 304.1185  1.00262505 33015
FENGYUN 2B              
1 26382U 00032A   09129.12222922 -.00000130  00000-0  10000-3 0  1631
2 26382   4.2427  72.9422 0003816 199.6846 160.1002  1.00110208 32478
NOAA 16                 
1 26536U 00055A   09129.19171129  .00000305  00000-0  18997-3 0  3948
2 26536  99.1753 131.9163 0010965  36.0946 324.0969 14.12518934444790
GOES 12                 
1 26871U 01031A   09129.23524084 -.00000247  00000-0  10000-3 0   492
2 26871   0.0761 255.0135 0004145 180.5315 161.0585  1.00261146 28612
FENGYUN 1D              
1 27431U 02024B   09129.31021251  .00000266  00000-0  17674-3 0  5494
2 27431  98.6235 120.6614 0015497 161.4742 198.6997 14.09282940359334
NOAA 17                 
1 27453U 02032A   09129.35672816  .00000109  00000-0  65618-4 0  4048
2 27453  98.4878 189.7590 0010930 233.3834 126.6385 14.24061180357222
METEOSAT-8 (MSG-1)      
1 27509U 02040B   09128.88782689  .00000061  00000-0  10000-3 0  2551
2 27509   0.5626  26.7734 0001581 311.7107 217.2800  1.00267961 24602
KALPANA-1 (METSAT 1)    
1 27525U 02043A   09128.72047280 -.00000078  00000-0  10000-3 0  9226
2 27525   0.1125  82.6419 0008350 346.6207 130.7590  1.00272014 24408
INSAT-3A                
1 27714U 03013A   09127.70812979 -.00000260  00000-0  10000-3 0  6035
2 27714   0.0268 235.7482 0005011 180.1193 158.2262  1.00271758 22292
FENGYUN 2C              
1 28451U 04042A   09128.96644103 -.00000330  00000-0  00000+0 0  5063
2 28451   1.3016  77.6875 0000885 290.5585 310.9847  1.00279680 16651
HIMAWARI 6 (MTSAT-1R)   
1 28622U 05006A   09128.88004433 -.00000280  00000-0  10000-3 0  1246
2 28622   0.0635  69.0580 0002409 195.4754  59.1768  1.00270849 15355
NOAA 18                 
1 28654U 05018A   09129.33680521  .00000061  00000-0  58239-4 0  8917
2 28654  98.9049  72.8810 0015365 111.4348 248.8476 14.11254401204473
METEOSAT-9 (MSG-2)      
1 28912U 05049B   09126.22138641 -.00000004  00000-0  10000-3 0  5024
2 28912   0.4910 118.6099 0000649 208.4128 337.2421  1.00280218 12429
MTSAT-2                 
1 28937U 06004A   09127.61066690 -.00000245  00000-0  10000-3 0  5680
2 28937   0.0268 260.8856 0003335 118.2163 211.3213  1.00270748 11822
FORMOSAT 3A             
1 29047U 06011A   09129.31563008  .00000275  00000-0  12780-3 0  9475
2 29047  71.9791 100.3583 0053479 212.0717 147.7174 14.27101868162183
FORMOSAT 3B             
1 29048U 06011B   09129.62830722  .00000390  00000-0  17471-3 0  9953
2 29048  71.9717  15.2352 0045162 162.0065 198.2687 14.27116690164709
FORMOSAT 3C             
1 29049U 06011C   09129.71546516  .00000361  00000-0  16364-3 0  9340
2 29049  72.0196 163.9067 0036989 225.3578 134.4533 14.27120540160499
FORMOSAT 3D             
1 29050U 06011D   09129.67475264  .00001097  00000-0  26646-3 0  2173
2 29050  72.0103 346.0497 0051716 113.1202 247.5367 14.54015474165645
FORMOSAT 3E             
1 29051U 06011E   09129.95728018  .00000373  00000-0  16522-3 0  9976
2 29051  72.0062  72.4867 0068392  92.1868 268.7054 14.27117299163119
FORMOSAT 3F             
1 29052U 06011F   09129.16394277  .00000360  00000-0  16273-3 0   112
2 29052  72.0351 135.9937 0042421 196.3038 163.6731 14.27114494161303
GOES 13                 
1 29155U 06018A   09129.18976032 -.00000086  00000-0  10000-3 0  6226
2 29155   0.2434 248.6297 0000991 295.1266   6.4072  1.00267522 10864
METOP-A                 
1 29499U 06044A   09129.96017368 -.00000142  00000-0 -45085-4 0  8026
2 29499  98.6900 190.7130 0001147  97.3040 262.8227 14.21498041132586
FENGYUN 2D              
1 29640U 06053A   09129.75710311 -.00000198  00000-0  10000-3 0  6418
2 29640   0.3823 245.9733 0000482 136.0916 204.7466  1.00272989  8917
FENGYUN 3A              
1 32958U 08026A   09129.78323775  .00000167  00000-0  10000-3 0  2997
2 32958  98.7709 201.6287 0000420  17.8288 342.2869 14.19587089 49330
NOAA 19                 
1 33591U 09005A   09129.30844028 -.00000084  00000-0 -22919-4 0   964
2 33591  98.7442  76.0859 0014116 358.5113   1.6020 14.10955333 12951
